MOLNIYA 1-71            
1 18946U 88017A   17345.40458376 -.00000247  00000-0 -10938-1 0  9996
2 18946  63.9047 310.9592 7064748 267.4164 346.4011  2.00573599218015
